0 NIMBUS 2 DEB
1 28609U 66040Y   13282.40762112  .00000008  00000-0  10000-3 0  2759
2 28609 100.3466 346.5206 0065875 297.0495 062.3392 13.40507117449977
0 NIMBUS 2 DEB
1 28609U 66040Y   13290.39361618  .00000008  00000-0  10000-3 0  2763
2 28609 100.3714 354.7395 0055255 274.1693 086.1849 13.40534679451045
0 NIMBUS 2 DEB
1 28609U 66040Y   13295.39391092  .00000008  00000-0  10000-3 0  2778
2 28609 100.3669 359.8767 0041053 241.3754 118.5926 13.40542444451717
